{"type": "FeatureCollection", "features": [{"type": "Feature", "properties": {"norad_id": 22490, "name": "SCD 1", "group": "resource", "lat": -2.028746940466309, "lon": 19.269412090408185, "alt_km": 729.8131003336384, "timestamp": "2025-12-26T07:29:18.116025+00:00", "meta": {"OBJECT_NAME": "SCD 1", "OBJECT_ID": "1993-009B", "EPOCH": "2025-12-25T16:00:22.325184", "MEAN_MOTION": 14.46007346, "ECCENTRICITY": 0.0042177, "INCLINATION": 24.9675, "RA_OF_ASC_NODE": 198.8837, "ARG_OF_PERICENTER": 101.5468, "MEAN_ANOMALY": 317.8225, "EPHEMERIS_TYPE": 0, "CLASSIFICATION_TYPE": "U", "NORAD_CAT_ID": 22490, "ELEMENT_SET_NO": 999, "REV_AT_EPOCH": 73597, "BSTAR": 8.5981e-05, "MEAN_MOTION_DOT": 5e-06, "MEAN_MOTION_DDOT": 0}, "tle": {"line1": "1 22490U 93009B   25359.66692506  .00000500  00000+0  85981-4 0  9991", "line2": "2 22490  24.9675 198.8837 0042177 101.5468 317.8225 14.46007346735976"}}, "geometry": {"type": "Point", "coordinates": [19.269412090408185, -2.028746940466309]}}, {"type": "Feature", "properties": {"norad_id": 25397, "name": "TECHSAT 1B (GO-32)", "group": "resource", "lat": -64.01968562784106, "lon": 144.87347436683837, "alt_km": 818.7428721811566, "timestamp": "2025-12-26T07:29:18.116057+00:00", "meta": {"OBJECT_NAME": "TECHSAT 1B (GO-32)", "OBJECT_ID": "1998-043D", "EPOCH": "2025-12-25T21:54:35.732448", "MEAN_MOTION": 14.24380587, "ECCENTRICITY": 0.00016258, "INCLINATION": 98.9934, "RA_OF_ASC_NODE": 343.4298, "ARG_OF_PERICENTER": 35.4202, "MEAN_ANOMALY": 324.7083, "EPHEMERIS_TYPE": 0, "CLASSIFICATION_TYPE": "U", "NORAD_CAT_ID": 25397, "ELEMENT_SET_NO": 999, "REV_AT_EPOCH": 42666, "BSTAR": 5.7041549e-05, "MEAN_MOTION_DOT": 8.5e-07, "MEAN_MOTION_DDOT": 0}, "tle": {"line1": "1 25397U 98043D   25359.91291357  .00000085  00000+0  57042-4 0  9995", "line2": "2 25397  98.9934 343.4298 0001625  35.4202 324.7083 14.24380587426666"}}, "geometry": {"type": "Point", "coordinates": [144.87347436683837, -64.01968562784106]}}, {"type": "Feature", "properties": {"norad_id": 25504, "name": "SCD 2", "group": "resource", "lat": -3.459377710349205, "lon": -114.33422069285201, "alt_km": 739.4309549734644, "timestamp": "2025-12-26T07:29:18.116073+00:00", "meta": {"OBJECT_NAME": "SCD 2", "OBJECT_ID": "1998-060A", "EPOCH": "2025-12-25T12:59:50.528256", "MEAN_MOTION": 14.45430101, "ECCENTRICITY": 0.0017068, "INCLINATION": 24.9956, "RA_OF_ASC_NODE": 62.9589, "ARG_OF_PERICENTER": 88.2247, "MEAN_ANOMALY": 42.4879, "EPHEMERIS_TYPE": 0, "CLASSIFICATION_TYPE": "U", "NORAD_CAT_ID": 25504, "ELEMENT_SET_NO": 999, "REV_AT_EPOCH": 43517, "BSTAR": 7.5618e-05, "MEAN_MOTION_DOT": 4.53e-06, "MEAN_MOTION_DDOT": 0}, "tle": {"line1": "1 25504U 98060A   25359.54155704  .00000453  00000+0  75618-4 0  9996", "line2": "2 25504  24.9956  62.9589 0017068  88.2247  42.4879 14.45430101435172"}}, "geometry": {"type": "Point", "coordinates": [-114.33422069285201, -3.459377710349205]}}, {"type": "Feature", "properties": {"norad_id": 25757, "name": "DLR-TUBSAT", "group": "resource", "lat": 28.14272249032222, "lon": -19.42978029796003, "alt_km": 722.1199600412974, "timestamp": "2025-12-26T07:29:18.116086+00:00", "meta": {"OBJECT_NAME": "DLR-TUBSAT", "OBJECT_ID": "1999-029B", "EPOCH": "2025-12-17T13:22:10.787520", "MEAN_MOTION": 14.52359578, "ECCENTRICITY": 0.00141996, "INCLINATION": 98.6566, "RA_OF_ASC_NODE": 336.2196, "ARG_OF_PERICENTER": 177.8976, "MEAN_ANOMALY": 182.2281, "EPHEMERIS_TYPE": 0, "CLASSIFICATION_TYPE": "U", "NORAD_CAT_ID": 25757, "ELEMENT_SET_NO": 999, "REV_AT_EPOCH": 40688, "BSTAR": 3.7650132e-05, "MEAN_MOTION_DOT": 1.05e-06, "MEAN_MOTION_DDOT": 0}, "tle": {"line1": "1 25757U 99029B   25351.55706930  .00000105  00000+0  37650-4 0  9996", "line2": "2 25757  98.6566 336.2196 0014199 177.8976 182.2281 14.52359578406886"}}, "geometry": {"type": "Point", "coordinates": [-19.42978029796003, 28.14272249032222]}}, {"type": "Feature", "properties": {"norad_id": 25994, "name": "TERRA", "group": "resource", "lat": 31.23864037527947, "lon": -123.62631941481818, "alt_km": 688.1287322988173, "timestamp": "2025-12-26T07:29:18.116099+00:00", "meta": {"OBJECT_NAME": "TERRA", "OBJECT_ID": "1999-068A", "EPOCH": "2025-12-25T22:56:31.139808", "MEAN_MOTION": 14.60916109, "ECCENTRICITY": 0.00034026, "INCLINATION": 97.973, "RA_OF_ASC_NODE": 51.1542, "ARG_OF_PERICENTER": 68.1467, "MEAN_ANOMALY": 8.4255, "EPHEMERIS_TYPE": 0, "CLASSIFICATION_TYPE": "U", "NORAD_CAT_ID": 25994, "ELEMENT_SET_NO": 999, "REV_AT_EPOCH": 38431, "BSTAR": 0.00010182449, "MEAN_MOTION_DOT": 4.54e-06, "MEAN_MOTION_DDOT": 0}, "tle": {"line1": "1 25994U 99068A   25359.95591597  .00000454  00000+0  10182-3 0  9992", "line2": "2 25994  97.9730  51.1542 0003402  68.1467   8.4255 14.60916109384315"}}, "geometry": {"type": "Point", "coordinates": [-123.62631941481818, 31.23864037527947]}}, {"type": "Feature", "properties": {"norad_id": 27004, "name": "MAROC-TUBSAT", "group": "resource", "lat": 34.802084610235816, "lon": 162.10094637081446, "alt_km": 1010.3035986084396, "timestamp": "2025-12-26T07:29:18.116111+00:00", "meta": {"OBJECT_NAME": "MAROC-TUBSAT", "OBJECT_ID": "2001-056D", "EPOCH": "2025-12-25T23:08:45.257280", "MEAN_MOTION": 13.70253529, "ECCENTRICITY": 0.00192975, "INCLINATION": 99.7917, "RA_OF_ASC_NODE": 168.6412, "ARG_OF_PERICENTER": 225.0784, "MEAN_ANOMALY": 256.5669, "EPHEMERIS_TYPE": 0, "CLASSIFICATION_TYPE": "U", "NORAD_CAT_ID": 27004, "ELEMENT_SET_NO": 999, "REV_AT_EPOCH": 20246, "BSTAR": 2.8065745e-05, "MEAN_MOTION_DOT": -2.2e-07, "MEAN_MOTION_DDOT": 0}, "tle": {"line1": "1 27004U 01056D   25359.96441270 -.00000022  00000+0  28066-4 0  9992", "line2": "2 27004  99.7917 168.6412 0019297 225.0784 256.5669 13.70253529202461"}}, "geometry": {"type": "Point", "coordinates": [162.10094637081446, 34.802084610235816]}}, {"type": "Feature", "properties": {"norad_id": 27424, "name": "AQUA", "group": "resource", "lat": 66.25288670626081, "lon": -58.225806506937424, "alt_km": 679.9105246879581, "timestamp": "2025-12-26T07:29:18.116123+00:00", "meta": {"OBJECT_NAME": "AQUA", "OBJECT_ID": "2002-022A", "EPOCH": "2025-12-24T19:18:33.414624", "MEAN_MOTION": 14.61757572, "ECCENTRICITY": 0.00018094, "INCLINATION": 98.4055, "RA_OF_ASC_NODE": 319.881, "ARG_OF_PERICENTER": 102.1365, "MEAN_ANOMALY": 317.5475, "EPHEMERIS_TYPE": 0, "CLASSIFICATION_TYPE": "U", "NORAD_CAT_ID": 27424, "ELEMENT_SET_NO": 999, "REV_AT_EPOCH": 25779, "BSTAR": 0.00019560508, "MEAN_MOTION_DOT": 9.26e-06, "MEAN_MOTION_DDOT": 0}, "tle": {"line1": "1 27424U 02022A   25358.80455341  .00000926  00000+0  19561-3 0  9999", "line2": "2 27424  98.4055 319.8810 0001809 102.1365 317.5475 14.61757572257795"}}, "geometry": {"type": "Point", "coordinates": [-58.225806506937424, 66.25288670626081]}}, {"type": "Feature", "properties": {"norad_id": 28051, "name": "IRS-P6 (RESOURCESAT-1)", "group": "resource", "lat": 62.62708268097477, "lon": -123.70814383002053, "alt_km": 722.8842595142587, "timestamp": "2025-12-26T07:29:18.116133+00:00", "meta": {"OBJECT_NAME": "IRS-P6 (RESOURCESAT-1)", "OBJECT_ID": "2003-046A", "EPOCH": "2025-12-25T23:08:36.081600", "MEAN_MOTION": 14.36080059, "ECCENTRICITY": 0.00649527, "INCLINATION": 98.2158, "RA_OF_ASC_NODE": 39.757, "ARG_OF_PERICENTER": 141.2062, "MEAN_ANOMALY": 338.6757, "EPHEMERIS_TYPE": 0, "CLASSIFICATION_TYPE": "U", "NORAD_CAT_ID": 28051, "ELEMENT_SET_NO": 999, "REV_AT_EPOCH": 15566, "BSTAR": 4.729786e-05, "MEAN_MOTION_DOT": 1e-06, "MEAN_MOTION_DDOT": 0}, "tle": {"line1": "1 28051U 03046A   25359.96430650  .00000100  00000+0  47298-4 0  9990", "line2": "2 28051  98.2158  39.7570 0064952 141.2062 338.6757 14.36080059155662"}}, "geometry": {"type": "Point", "coordinates": [-123.70814383002053, 62.62708268097477]}}, {"type": "Feature", "properties": {"norad_id": 28220, "name": "SHIYAN-1 (SY-1)", "group": "resource", "lat": 9.787102690521134, "lon": -115.97641968695162, "alt_km": 482.5559539437245, "timestamp": "2025-12-26T07:29:18.116144+00:00", "meta": {"OBJECT_NAME": "SHIYAN-1 (SY-1)", "OBJECT_ID": "2004-012A", "EPOCH": "2025-12-25T18:10:37.216416", "MEAN_MOTION": 15.2847773, "ECCENTRICITY": 0.00051453, "INCLINATION": 97.8913, "RA_OF_ASC_NODE": 62.0651, "ARG_OF_PERICENTER": 270.3506, "MEAN_ANOMALY": 89.7142, "EPHEMERIS_TYPE": 0, "CLASSIFICATION_TYPE": "U", "NORAD_CAT_ID": 28220, "ELEMENT_SET_NO": 999, "REV_AT_EPOCH": 18455, "BSTAR": 0.00048278307, "MEAN_MOTION_DOT": 0.00013314, "MEAN_MOTION_DDOT": 0}, "tle": {"line1": "1 28220U 04012A   25359.75737519  .00013314  00000+0  48278-3 0  9992", "line2": "2 28220  97.8913  62.0651 0005145 270.3506  89.7142 15.28477730184559"}}, "geometry": {"type": "Point", "coordinates": [-115.97641968695162, 9.787102690521134]}}, {"type": "Feature", "properties": {"norad_id": 28376, "name": "AURA", "group": "resource", "lat": 22.014016370831346, "lon": 133.9951987288388, "alt_km": 689.3856373691979, "timestamp": "2025-12-26T07:29:18.116155+00:00", "meta": {"OBJECT_NAME": "AURA", "OBJECT_ID": "2004-026A", "EPOCH": "2025-12-25T22:33:02.817216", "MEAN_MOTION": 14.60975957, "ECCENTRICITY": 0.00014373, "INCLINATION": 98.3204, "RA_OF_ASC_NODE": 310.2289, "ARG_OF_PERICENTER": 90.611, "MEAN_ANOMALY": 269.5255, "EPHEMERIS_TYPE": 0, "CLASSIFICATION_TYPE": "U", "NORAD_CAT_ID": 28376, "ELEMENT_SET_NO": 999, "REV_AT_EPOCH": 14091, "BSTAR": 0.00022936053, "MEAN_MOTION_DOT": 1.076e-05, "MEAN_MOTION_DDOT": 0}, "tle": {"line1": "1 28376U 04026A   25359.93961594  .00001076  00000+0  22936-3 0  9996", "line2": "2 28376  98.3204 310.2289 0001437  90.6110 269.5255 14.60975957140913"}}, "geometry": {"type": "Point", "coordinates": [133.9951987288388, 22.014016370831346]}}]}